[{"OBJECT_NAME":"PHISAT 2","OBJECT_ID":"2024-149C","EPOCH":"2026-03-09T18:55:12.732384","MEAN_MOTION":15.29548632,"ECCENTRICITY":0.00011753,"INCLINATION":97.3806,"RA_OF_ASC_NODE":148.6498,"ARG_OF_PERICENTER":168.623,"MEAN_ANOMALY":191.5037,"EPHEMERIS_TYPE":0,"CLASSIFICATION_TYPE":"U","NORAD_CAT_ID":60470,"ELEMENT_SET_NO":999,"REV_AT_EPOCH":8679,"BSTAR":0.00031420974,"MEAN_MOTION_DOT":8.925e-5,"MEAN_MOTION_DDOT":0},{"OBJECT_NAME":"STARLINK-35939","OBJECT_ID":"2025-268AD","EPOCH":"2026-03-09T02:21:32.773536","MEAN_MOTION":15.27559241,"ECCENTRICITY":0.00015039,"INCLINATION":43.0045,"RA_OF_ASC_NODE":350.0257,"ARG_OF_PERICENTER":267.1798,"MEAN_ANOMALY":92.8881,"EPHEMERIS_TYPE":0,"CLASSIFICATION_TYPE":"U","NORAD_CAT_ID":66584,"ELEMENT_SET_NO":999,"REV_AT_EPOCH":1787,"BSTAR":0.0013505946,"MEAN_MOTION_DOT":0.00037067,"MEAN_MOTION_DDOT":0}]
