PHISAT 2                
1 60470U 24149C   26068.78834181  .00008925  00000+0  31421-3 0  9996
2 60470  97.3806 148.6498 0001175 168.6230 191.5037 15.29548631 86792
STARLINK-35939          
1 66584U 25268AD  26068.09829599  .00037067  00000+0  13506-2 0  9994
2 66584  43.0045 350.0257 0001503 267.1798  92.8881 15.27559241 17878
